{"type": "FeatureCollection", "features": [ {"type": "Feature", "properties": {"norad_id": 30061, "name": "FENGYUN 1C DEB", "group": "fengyun-1c-debris", "lat": 58.57483599890703, "lon": 90.45716974333466, "alt_km": 1344.4212584675433, "timestamp": "2025-12-24T16:52:41.805486+00:00", "meta": {"OBJECT_NAME": "FENGYUN 1C DEB", "OBJECT_ID": "1999-025PN", "EPOCH": "2025-12-24T06:00:32.304096", "MEAN_MOTION": 13.4651677, "ECCENTRICITY": 0.03733453, "INCLINATION": 101.8749, "RA_OF_ASC_NODE": 110.0628, "ARG_OF_PERICENTER": 224.5028, "MEAN_ANOMALY": 163.2146, "EPHEMERIS_TYPE": 0, "CLASSIFICATION_TYPE": "U", "NORAD_CAT_ID": 30061, "ELEMENT_SET_NO": 999, "REV_AT_EPOCH": 92254, "BSTAR": 0.0038948046, "MEAN_MOTION_DOT": 3.525e-05, "MEAN_MOTION_DDOT": 0}, "tle": {"line1": "1 30061U 99025PN  25358.25037389  .00003525  00000+0  38948-2 0  9993", "line2": "2 30061 101.8749 110.0628 0373345 224.5028 163.2146 13.46516770922543"}}, "geometry": {"type": "Point", "coordinates": [90.45716974333466, 58.57483599890703]}}, {"type": "Feature", "properties": {"norad_id": 30062, "name": "FENGYUN 1C DEB", "group": "fengyun-1c-debris", "lat": 80.66057194175457, "lon": -102.4412938836265, "alt_km": 854.4052619691247, "timestamp": "2025-12-24T16:52:41.805496+00:00", "meta": {"OBJECT_NAME": "FENGYUN 1C DEB", "OBJECT_ID": "1999-025PP", "EPOCH": "2025-12-24T06:29:40.372224", "MEAN_MOTION": 14.07127056, "ECCENTRICITY": 0.00490452, "INCLINATION": 98.7805, "RA_OF_ASC_NODE": 7.126, "ARG_OF_PERICENTER": 16.0818, "MEAN_ANOMALY": 46.075, "EPHEMERIS_TYPE": 0, "CLASSIFICATION_TYPE": "U", "NORAD_CAT_ID": 30062, "ELEMENT_SET_NO": 999, "REV_AT_EPOCH": 97070, "BSTAR": 0.00041055351, "MEAN_MOTION_DOT": 6.52e-06, "MEAN_MOTION_DDOT": 0}, "tle": {"line1": "1 30062U 99025PP  25358.27060616  .00000652  00000+0  41055-3 0  9997", "line2": "2 30062  98.7805   7.1260 0049045  16.0818  46.0750 14.07127056970700"}}, "geometry": {"type": "Point", "coordinates": [-102.4412938836265, 80.66057194175457]}}, {"type": "Feature", "properties": {"norad_id": 30063, "name": "FENGYUN 1C DEB", "group": "fengyun-1c-debris", "lat": 68.04015236738161, "lon": 178.82518853543823, "alt_km": 809.8380512527683, "timestamp": "2025-12-24T16:52:41.805507+00:00", "meta": {"OBJECT_NAME": "FENGYUN 1C DEB", "OBJECT_ID": "1999-025PQ", "EPOCH": "2025-12-24T04:32:17.922912", "MEAN_MOTION": 14.15615297, "ECCENTRICITY": 0.00333322, "INCLINATION": 98.5227, "RA_OF_ASC_NODE": 336.5012, "ARG_OF_PERICENTER": 102.2529, "MEAN_ANOMALY": 269.1407, "EPHEMERIS_TYPE": 0, "CLASSIFICATION_TYPE": "U", "NORAD_CAT_ID": 30063, "ELEMENT_SET_NO": 999, "REV_AT_EPOCH": 97827, "BSTAR": 8.2005717e-05, "MEAN_MOTION_DOT": 1.2e-06, "MEAN_MOTION_DDOT": 0}, "tle": {"line1": "1 30063U 99025PQ  25358.18909633  .00000120  00000+0  82006-4 0  9991", "line2": "2 30063  98.5227 336.5012 0033332 102.2529 269.1407 14.15615297978275"}}, "geometry": {"type": "Point", "coordinates": [178.82518853543823, 68.04015236738161]}}, {"type": "Feature", "properties": {"norad_id": 30064, "name": "FENGYUN 1C DEB", "group": "fengyun-1c-debris", "lat": 1.4373069423531903, "lon": -170.39028594838442, "alt_km": 856.1394506312054, "timestamp": "2025-12-24T16:52:41.805517+00:00", "meta": {"OBJECT_NAME": "FENGYUN 1C DEB", "OBJECT_ID": "1999-025PR", "EPOCH": "2025-12-24T01:04:13.709568", "MEAN_MOTION": 14.14276918, "ECCENTRICITY": 0.00666774, "INCLINATION": 98.6613, "RA_OF_ASC_NODE": 8.752, "ARG_OF_PERICENTER": 79.5912, "MEAN_ANOMALY": 346.4764, "EPHEMERIS_TYPE": 0, "CLASSIFICATION_TYPE": "U", "NORAD_CAT_ID": 30064, "ELEMENT_SET_NO": 999, "REV_AT_EPOCH": 97665, "BSTAR": 0.0001569012, "MEAN_MOTION_DOT": 2.64e-06, "MEAN_MOTION_DDOT": 0}, "tle": {"line1": "1 30064U 99025PR  25358.04460312  .00000264  00000+0  15690-3 0  9996", "line2": "2 30064  98.6613   8.7520 0066677  79.5912 346.4764 14.14276918976655"}}, "geometry": {"type": "Point", "coordinates": [-170.39028594838442, 1.4373069423531903]}}, {"type": "Feature", "properties": {"norad_id": 30065, "name": "FENGYUN 1C DEB", "group": "fengyun-1c-debris", "lat": 37.35558364295081, "lon": -36.01571512941729, "alt_km": 861.4330481500665, "timestamp": "2025-12-24T16:52:41.805527+00:00", "meta": {"OBJECT_NAME": "FENGYUN 1C DEB", "OBJECT_ID": "1999-025PS", "EPOCH": "2025-12-23T11:16:02.379936", "MEAN_MOTION": 13.86920283, "ECCENTRICITY": 0.01312161, "INCLINATION": 98.6856, "RA_OF_ASC_NODE": 329.5385, "ARG_OF_PERICENTER": 2.4191, "MEAN_ANOMALY": 357.7574, "EPHEMERIS_TYPE": 0, "CLASSIFICATION_TYPE": "U", "NORAD_CAT_ID": 30065, "ELEMENT_SET_NO": 999, "REV_AT_EPOCH": 95820, "BSTAR": 0.00016321993, "MEAN_MOTION_DOT": 1.64e-06, "MEAN_MOTION_DDOT": 0}, "tle": {"line1": "1 30065U 99025PS  25357.46947199  .00000164  00000+0  16322-3 0  9997", "line2": "2 30065  98.6856 329.5385 0131216   2.4191 357.7574 13.86920283958208"}}, "geometry": {"type": "Point", "coordinates": [-36.01571512941729, 37.35558364295081]}}, {"type": "Feature", "properties": {"norad_id": 30066, "name": "FENGYUN 1C DEB", "group": "fengyun-1c-debris", "lat": -30.390103234204563, "lon": 163.71895382216223, "alt_km": 753.3727251957389, "timestamp": "2025-12-24T16:52:41.805537+00:00", "meta": {"OBJECT_NAME": "FENGYUN 1C DEB", "OBJECT_ID": "1999-025PT", "EPOCH": "2025-12-23T23:03:09.519840", "MEAN_MOTION": 14.19116858, "ECCENTRICITY": 0.0116898, "INCLINATION": 98.6352, "RA_OF_ASC_NODE": 348.1081, "ARG_OF_PERICENTER": 229.2589, "MEAN_ANOMALY": 149.429, "EPHEMERIS_TYPE": 0, "CLASSIFICATION_TYPE": "U", "NORAD_CAT_ID": 30066, "ELEMENT_SET_NO": 999, "REV_AT_EPOCH": 97996, "BSTAR": 0.00012941, "MEAN_MOTION_DOT": 2.46e-06, "MEAN_MOTION_DDOT": 0}, "tle": {"line1": "1 30066U 99025PT  25357.96052685  .00000246  00000+0  12941-3 0  9994", "line2": "2 30066  98.6352 348.1081 0116898 229.2589 149.4290 14.19116858979968"}}, "geometry": {"type": "Point", "coordinates": [163.71895382216223, -30.390103234204563]}}, {"type": "Feature", "properties": {"norad_id": 30067, "name": "FENGYUN 1C DEB", "group": "fengyun-1c-debris", "lat": 65.32465082405572, "lon": 84.76937054364137, "alt_km": 809.1663337492255, "timestamp": "2025-12-24T16:52:41.805548+00:00", "meta": {"OBJECT_NAME": "FENGYUN 1C DEB", "OBJECT_ID": "1999-025PU", "EPOCH": "2025-12-24T05:16:04.203840", "MEAN_MOTION": 14.43722414, "ECCENTRICITY": 0.0151265, "INCLINATION": 98.7656, "RA_OF_ASC_NODE": 244.6476, "ARG_OF_PERICENTER": 343.8552, "MEAN_ANOMALY": 135.0409, "EPHEMERIS_TYPE": 0, "CLASSIFICATION_TYPE": "U", "NORAD_CAT_ID": 30067, "ELEMENT_SET_NO": 999, "REV_AT_EPOCH": 99364, "BSTAR": 0.00043423756, "MEAN_MOTION_DOT": 1.642e-05, "MEAN_MOTION_DDOT": 0}, "tle": {"line1": "1 30067U 99025PU  25358.21949310  .00001642  00000+0  43424-3 0  9995", "line2": "2 30067  98.7656 244.6476 0151265 343.8552 135.0409 14.43722414993647"}}, "geometry": {"type": "Point", "coordinates": [84.76937054364137, 65.32465082405572]}}, {"type": "Feature", "properties": {"norad_id": 30068, "name": "FENGYUN 1C DEB", "group": "fengyun-1c-debris", "lat": 70.02132449235961, "lon": -38.81191123968051, "alt_km": 906.1407593818285, "timestamp": "2025-12-24T16:52:41.805559+00:00", "meta": {"OBJECT_NAME": "FENGYUN 1C DEB", "OBJECT_ID": "1999-025PV", "EPOCH": "2025-12-24T04:38:12.037632", "MEAN_MOTION": 14.12057309, "ECCENTRICITY": 0.01894374, "INCLINATION": 98.7375, "RA_OF_ASC_NODE": 345.7162, "ARG_OF_PERICENTER": 316.2165, "MEAN_ANOMALY": 42.4118, "EPHEMERIS_TYPE": 0, "CLASSIFICATION_TYPE": "U", "NORAD_CAT_ID": 30068, "ELEMENT_SET_NO": 999, "REV_AT_EPOCH": 97505, "BSTAR": 0.00018785716, "MEAN_MOTION_DOT": 3.63e-06, "MEAN_MOTION_DDOT": 0}, "tle": {"line1": "1 30068U 99025PV  25358.19319488  .00000363  00000+0  18786-3 0  9992", "line2": "2 30068  98.7375 345.7162 0189437 316.2165  42.4118 14.12057309975050"}}, "geometry": {"type": "Point", "coordinates": [-38.81191123968051, 70.02132449235961]}}, {"type": "Feature", "properties": {"norad_id": 30069, "name": "FENGYUN 1C DEB", "group": "fengyun-1c-debris", "lat": -38.153346678736405, "lon": 153.2069087673345, "alt_km": 916.0841168332072, "timestamp": "2025-12-24T16:52:41.805569+00:00", "meta": {"OBJECT_NAME": "FENGYUN 1C DEB", "OBJECT_ID": "1999-025PW", "EPOCH": "2025-12-23T21:19:43.871808", "MEAN_MOTION": 14.05234719, "ECCENTRICITY": 0.0049467, "INCLINATION": 98.8024, "RA_OF_ASC_NODE": 339.4082, "ARG_OF_PERICENTER": 22.3199, "MEAN_ANOMALY": 38.0093, "EPHEMERIS_TYPE": 0, "CLASSIFICATION_TYPE": "U", "NORAD_CAT_ID": 30069, "ELEMENT_SET_NO": 999, "REV_AT_EPOCH": 97003, "BSTAR": 0.00036817, "MEAN_MOTION_DOT": 5.59e-06, "MEAN_MOTION_DDOT": 0}, "tle": {"line1": "1 30069U 99025PW  25357.88870222  .00000559  00000+0  36817-3 0  9998", "line2": "2 30069  98.8024 339.4082 0049467  22.3199  38.0093 14.05234719970034"}}, "geometry": {"type": "Point", "coordinates": [153.2069087673345, -38.153346678736405]}}, {"type": "Feature", "properties": {"norad_id": 30070, "name": "FENGYUN 1C DEB", "group": "fengyun-1c-debris", "lat": -27.49971302938429, "lon": -126.93115676008843, "alt_km": 803.3986205583278, "timestamp": "2025-12-24T16:52:41.805580+00:00", "meta": {"OBJECT_NAME": "FENGYUN 1C DEB", "OBJECT_ID": "1999-025PX", "EPOCH": "2025-12-24T04:15:43.869312", "MEAN_MOTION": 14.10001554, "ECCENTRICITY": 0.03279415, "INCLINATION": 98.2848, "RA_OF_ASC_NODE": 56.9336, "ARG_OF_PERICENTER": 285.9791, "MEAN_ANOMALY": 138.5631, "EPHEMERIS_TYPE": 0, "CLASSIFICATION_TYPE": "U", "NORAD_CAT_ID": 30070, "ELEMENT_SET_NO": 999, "REV_AT_EPOCH": 96040, "BSTAR": 0.0016366973, "MEAN_MOTION_DOT": 4.723e-05, "MEAN_MOTION_DDOT": 0}, "tle": {"line1": "1 30070U 99025PX  25358.17759108  .00004723  00000+0  16367-2 0  9996", "line2": "2 30070  98.2848  56.9336 0327941 285.9791 138.5631 14.10001554960407"}}, "geometry": {"type": "Point", "coordinates": [-126.93115676008843, -27.49971302938429]}}]}